[{"OBJECT_NAME":"SEAHAWK-1","OBJECT_ID":"2018-099BQ","EPOCH":"2026-03-09T17:26:19.455648","MEAN_MOTION":15.21024633,"ECCENTRICITY":0.00069788,"INCLINATION":97.4094,"RA_OF_ASC_NODE":122.7887,"ARG_OF_PERICENTER":302.9769,"MEAN_ANOMALY":57.0796,"EPHEMERIS_TYPE":0,"CLASSIFICATION_TYPE":"U","NORAD_CAT_ID":43820,"ELEMENT_SET_NO":999,"REV_AT_EPOCH":39740,"BSTAR":0.00046242233,"MEAN_MOTION_DOT":0.00010205,"MEAN_MOTION_DDOT":0},{"OBJECT_NAME":"PIAST-S1","OBJECT_ID":"2025-276CM","EPOCH":"2026-03-09T17:19:42.400992","MEAN_MOTION":15.19110879,"ECCENTRICITY":0.00014695,"INCLINATION":97.4262,"RA_OF_ASC_NODE":144.0248,"ARG_OF_PERICENTER":354.6822,"MEAN_ANOMALY":5.4397,"EPHEMERIS_TYPE":0,"CLASSIFICATION_TYPE":"U","NORAD_CAT_ID":66749,"ELEMENT_SET_NO":999,"REV_AT_EPOCH":1532,"BSTAR":0.00033676553,"MEAN_MOTION_DOT":7.004e-5,"MEAN_MOTION_DDOT":0}]
